[{"OBJECT_NAME":"EUCROPIS","OBJECT_ID":"2018-099BB","EPOCH":"2026-03-09T17:11:26.691360","MEAN_MOTION":15.19070978,"ECCENTRICITY":0.00039821,"INCLINATION":97.4349,"RA_OF_ASC_NODE":126.0391,"ARG_OF_PERICENTER":286.1281,"MEAN_ANOMALY":73.9515,"EPHEMERIS_TYPE":0,"CLASSIFICATION_TYPE":"U","NORAD_CAT_ID":43807,"ELEMENT_SET_NO":999,"REV_AT_EPOCH":39735,"BSTAR":0.00041485658,"MEAN_MOTION_DOT":8.636e-5,"MEAN_MOTION_DDOT":0},{"OBJECT_NAME":"ROADS 1","OBJECT_ID":"2025-135H","EPOCH":"2026-03-09T20:30:26.589888","MEAN_MOTION":15.21189252,"ECCENTRICITY":0.00052629,"INCLINATION":97.4546,"RA_OF_ASC_NODE":184.7054,"ARG_OF_PERICENTER":153.667,"MEAN_ANOMALY":206.4834,"EPHEMERIS_TYPE":0,"CLASSIFICATION_TYPE":"U","NORAD_CAT_ID":64535,"ELEMENT_SET_NO":999,"REV_AT_EPOCH":3975,"BSTAR":0.00040940157,"MEAN_MOTION_DOT":9.066e-5,"MEAN_MOTION_DDOT":0}]
