EUCROPIS                
1 43807U 18099BB  26068.71628115  .00008636  00000+0  41486-3 0  9990
2 43807  97.4349 126.0391 0003982 286.1281  73.9515 15.19070978397356
ROADS 1                 
1 64535U 25135H   26068.85447441  .00009066  00000+0  40940-3 0  9998
2 64535  97.4546 184.7054 0005263 153.6670 206.4834 15.21189252 39750
